NORAD_CAT_ID,OBJECT_NAME,OBJECT_TYPE,EPOCH,MEAN_MOTION,ECCENTRICITY,INCLINATION,RA_OF_ASC_NODE,ARG_OF_PERICENTER,MEAN_ANOMALY,BSTAR,MEAN_MOTION_DOT,MEAN_MOTION_DDOT,TLE_LINE0,TLE_LINE1,TLE_LINE2,SEMIMAJOR_AXIS,PERIOD,APOGEE,PERIGEE,DECAYED
52876.0,STARLINK-4200,PAYLOAD,2023-10-25 08:08:25,15.08821767,0.0001574,53.218,303.3198,87.8308,272.2864,0.00040858,6.217e-05,0.0,0 STARLINK-4200,1 52876U 22062AY  23298.33918170  .00006217  00000-0  40858-3 0  9990,2 52876  53.2180 303.3198 0001574  87.8308 272.2864 15.08821767 75768,6917.936,95.439,540.89,538.712,0.0
52876.0,STARLINK-4200,PAYLOAD,2023-10-26 04:48:25,15.08848094,0.0001629,53.2187,299.4554,87.463,272.6549,9.1872e-05,1.175e-05,0.0,0 STARLINK-4200,1 52876U 22062AY  23299.20029164  .00001175  00000-0  91872-4 0  9994,2 52876  53.2187 299.4554 0001629  87.4630 272.6549 15.08848094 75891,6917.856,95.437,540.848,538.594,0.0
52876.0,STARLINK-4200,PAYLOAD,2023-10-26 09:34:33,15.08855529,0.0001486,53.2177,298.5611,88.8209,271.2953,0.00012871,1.762e-05,0.0,0 STARLINK-4200,1 52876U 22062AY  23299.39900427  .00001762  00000-0  12871-3 0  9997,2 52876  53.2177 298.5611 0001486  88.8209 271.2953 15.08855529 75921,6917.833,95.437,540.726,538.67,0.0
52876.0,STARLINK-4200,PAYLOAD,2023-10-26 17:31:29,15.08851265,0.0001488,53.218,297.0743,90.427,269.6893,5.5779e-05,6e-06,0.0,0 STARLINK-4200,1 52876U 22062AY  23299.73020658  .00000600  00000-0  55779-4 0  9999,2 52876  53.2180 297.0743 0001488  90.4270 269.6893 15.08851265 75482,6917.846,95.437,540.74,538.682,0.0
52876.0,STARLINK-4200,PAYLOAD,2023-10-27 04:39:11,15.08845642,0.0001394,53.2184,294.9941,90.9162,269.199,0.00013154,1.806e-05,0.0,0 STARLINK-4200,1 52876U 22062AY  23300.19388861  .00001806  00000-0  13154-3 0  9994,2 52876  53.2184 294.9941 0001394  90.9162 269.1990 15.08845642 76041,6917.863,95.437,540.692,538.764,0.0
52876.0,STARLINK-4200,PAYLOAD,2023-10-27 06:14:34,15.08856891,0.0001638,53.2178,294.6965,96.8344,263.2835,0.00030453,4.564e-05,0.0,0 STARLINK-4200,1 52876U 22062AY  23300.26012387  .00004564  00000-0  30453-3 0  9994,2 52876  53.2178 294.6965 0001638  96.8344 263.2835 15.08856891 76057,6917.829,95.436,540.827,538.561,0.0
52876.0,STARLINK-4200,PAYLOAD,2023-10-27 17:22:17,15.08842962,0.0002303,53.2178,292.6137,88.1086,272.017,8.6267e-05,1.085e-05,0.0,0 STARLINK-4200,1 52876U 22062AY  23300.72381233  .00001085  00000-0  86267-4 0  9994,2 52876  53.2178 292.6137 0002303  88.1086 272.0170 15.08842962 76125,6917.871,95.437,541.33,538.143,0.0
52876.0,STARLINK-4200,PAYLOAD,2023-10-28 09:16:09,15.08836358,0.0001742,53.2178,289.6387,99.6831,260.4358,1.0297e-05,-1.24e-06,0.0,0 STARLINK-4200,1 52876U 22062AY  23301.38621591 -.00000124  00000-0  10297-4 0  9995,2 52876  53.2178 289.6387 0001742  99.6831 260.4358 15.08836358 76221,6917.892,95.438,540.962,538.551,0.0
52876.0,STARLINK-4200,PAYLOAD,2023-10-29 05:56:09,15.08853419,0.0001577,53.2172,285.7733,91.7381,268.3792,0.00028551,4.26e-05,0.0,0 STARLINK-4200,1 52876U 22062AY  23302.24732935  .00004260  00000-0  28551-3 0  9991,2 52876  53.2172 285.7733 0001577  91.7381 268.3792 15.08853419 76356,6917.839,95.437,540.795,538.613,0.0
52876.0,STARLINK-4200,PAYLOAD,2023-10-29 15:28:28,15.08843293,0.0001646,53.2178,283.9896,90.7265,269.3916,5.3479e-05,5.63e-06,0.0,0 STARLINK-4200,1 52876U 22062AY  23302.64477198  .00000563  00000-0  53479-4 0  9992,2 52876  53.2178 283.9896 0001646  90.7265 269.3916 15.08843293 76414,6917.87,95.437,540.874,538.597,0.0
52876.0,STARLINK-4200,PAYLOAD,2023-10-30 04:11:33,15.08837433,0.0001921,53.2187,281.6129,95.4689,264.6522,0.0001366,1.886e-05,0.0,0 STARLINK-4200,1 52876U 22062AY  23303.17469782  .00001886  00000-0  13660-3 0  9997,2 52876  53.2187 281.6129 0001921  95.4689 264.6522 15.08837433 76494,6917.888,95.438,541.082,538.424,0.0
52876.0,STARLINK-4200,PAYLOAD,2023-10-30 15:19:15,15.08837019,0.0001761,53.2185,279.5328,88.4101,271.7093,3.8708e-06,-2.26e-06,0.0,0 STARLINK-4200,1 52876U 22062AY  23303.63837846 -.00000226  00000-0  38708-5 0  9998,2 52876  53.2185 279.5328 0001761  88.4101 271.7093 15.08837019 76078,6917.89,95.438,540.973,538.536,0.0
52876.0,STARLINK-4200,PAYLOAD,2023-10-31 05:37:44,15.08831364,0.0001791,53.2181,276.8578,105.6393,254.4797,-0.00014426,-2.583e-05,0.0,0 STARLINK-4200,1 52876U 22062AY  23304.23454376 -.00002583  00000-0 -14426-3 0  9996,2 52876  53.2181 276.8578 0001791 105.6393 254.4797 15.08831364 76659,6917.907,95.438,541.011,538.533,0.0
52876.0,STARLINK-4200,PAYLOAD,2023-10-31 08:48:30,15.08840265,0.0001615,53.218,276.2601,96.5299,263.5877,-1.8547e-05,-5.83e-06,0.0,0 STARLINK-4200,1 52876U 22062AY  23304.36702371 -.00000583  00000-0 -18547-4 0  9998,2 52876  53.2180 276.2601 0001615  96.5299 263.5877 15.08840265 76185,6917.88,95.438,540.862,538.627,0.0
52876.0,STARLINK-4200,PAYLOAD,2023-10-31 15:10:03,15.08836555,0.0001628,53.2174,275.07,94.04,266.0778,-4.2235e-05,-9.6e-06,0.0,0 STARLINK-4200,1 52876U 22062AY  23304.63198254 -.00000960  00000-0 -42235-4 0  9997,2 52876  53.2174 275.0700 0001628  94.0400 266.0778 15.08836555 76226,6917.891,95.438,540.882,538.63,0.0
52876.0,STARLINK-4200,PAYLOAD,2023-11-01 03:53:08,15.08841641,0.0001497,53.2166,272.6902,93.9958,266.1205,0.0001426,1.982e-05,0.0,0 STARLINK-4200,1 52876U 22062AY  23305.16190213  .00001982  00000-0  14260-3 0  9992,2 52876  53.2166 272.6902 0001497  93.9958 266.1205 15.08841641 76794,6917.875,95.437,540.776,538.705,0.0
52876.0,STARLINK-4200,PAYLOAD,2023-11-01 07:03:54,15.08848778,0.0001669,53.2179,272.0961,95.3965,264.7217,0.00024139,3.557e-05,0.0,0 STARLINK-4200,1 52876U 22062AY  23305.29437925  .00003557  00000-0  24139-3 0  9996,2 52876  53.2179 272.0961 0001669  95.3965 264.7217 15.08848778 76326,6917.854,95.437,540.873,538.564,0.0
52876.0,STARLINK-4200,PAYLOAD,2023-11-01 15:00:50,15.08842594,0.0001847,53.2195,270.6121,90.0029,270.1175,0.00017003,2.419e-05,0.0,0 STARLINK-4200,1 52876U 22062AY  23305.62558282  .00002419  00000-0  17003-3 0  9991,2 52876  53.2195 270.6121 0001847  90.0029 270.1175 15.08842594 76376,6917.872,95.437,541.015,538.46,0.0
52876.0,STARLINK-4200,PAYLOAD,2023-11-02 06:54:41,15.08850536,0.0001488,53.2172,267.6348,88.7014,271.4149,0.00024422,3.602e-05,0.0,0 STARLINK-4200,1 52876U 22062AY  23306.28797898  .00003602  00000-0  24422-3 0  9990,2 52876  53.2172 267.6348 0001488  88.7014 271.4149 15.08850536 76962,6917.848,95.437,540.743,538.684,0.0
52876.0,STARLINK-4200,PAYLOAD,2023-11-02 21:13:10,15.08841364,0.0001674,53.2179,264.9588,95.4497,264.6686,9.0877e-05,1.159e-05,0.0,0 STARLINK-4200,1 52876U 22062AY  23306.88414472  .00001159  00000-0  90877-4 0  9993,2 52876  53.2179 264.9588 0001674  95.4497 264.6686 15.08841364 77052,6917.876,95.437,540.899,538.583,0.0
52876.0,STARLINK-4200,PAYLOAD,2023-11-03 03:34:41,15.08853001,0.0001719,53.218,263.77,103.4173,256.7011,0.00011786,1.589e-05,0.0,0 STARLINK-4200,1 52876U 22062AY  23307.14909681  .00001589  00000-0  11786-3 0  9992,2 52876  53.2180 263.7700 0001719 103.4173 256.7011 15.08853001 77097,6917.841,95.437,540.895,538.516,0.0
52876.0,STARLINK-4200,PAYLOAD,2023-11-03 06:45:27,15.08858774,0.0001747,53.2183,263.1738,100.5418,259.5771,0.00021289,3.103e-05,0.0,0 STARLINK-4200,1 52876U 22062AY  23307.28157353  .00003103  00000-0  21289-3 0  9991,2 52876  53.2183 263.1738 0001747 100.5418 259.5771 15.08858774 76620,6917.823,95.436,540.897,538.479,0.0
52876.0,STARLINK-4200,PAYLOAD,2023-11-03 21:03:57,15.08839758,0.0001554,53.2162,260.5003,85.5693,274.5477,0.0001106,1.473e-05,0.0,0 STARLINK-4200,1 52876U 22062AY  23307.87774317  .00001473  00000-0  11060-3 0  9995,2 52876  53.2162 260.5003 0001554  85.5693 274.5477 15.08839758 77202,6917.881,95.438,540.821,538.671,0.0
52876.0,STARLINK-4200,PAYLOAD,2023-11-04 03:25:29,15.08849156,0.0001541,53.2169,259.309,97.0475,263.0693,0.00016634,2.361e-05,0.0,0 STARLINK-4200,1 52876U 22062AY  23308.14269764  .00002361  00000-0  16634-3 0  9990,2 52876  53.2169 259.3090 0001541  97.0475 263.0693 15.08849156 77243,6917.852,95.437,540.783,538.651,0.0
52876.0,STARLINK-4200,PAYLOAD,2023-11-04 06:36:15,15.08853825,0.0001605,53.2169,258.7135,98.7626,261.3548,0.00027476,4.089e-05,0.0,0 STARLINK-4200,1 52876U 22062AY  23308.27517576  .00004089  00000-0  27476-3 0  9996,2 52876  53.2169 258.7135 0001605  98.7626 261.3548 15.08853825 76778,6917.838,95.437,540.813,538.593,0.0
52876.0,STARLINK-4200,PAYLOAD,2023-11-05 03:16:16,15.08849464,0.0001637,53.2174,254.8483,95.62,264.4978,0.00060035,9.282e-05,0.0,0 STARLINK-4200,1 52876U 22062AY  23309.13630186  .00009282  00000-0  60035-3 0  9993,2 52876  53.2174 254.8483 0001637  95.6200 264.4978 15.08849464 77390,6917.851,95.437,540.849,538.584,0.0
52876.0,STARLINK-4200,PAYLOAD,2023-11-06 03:07:02,15.08907588,0.0001678,53.2171,250.3875,86.7917,273.3267,0.0030876,0.00049287,0.0,0 STARLINK-4200,1 52876U 22062AY  23310.12988765  .00049287  00000-0  30876-2 0  9991,2 52876  53.2171 250.3875 0001678  86.7917 273.3267 15.08907588 77543,6917.674,95.433,540.7,538.378,0.0
52876.0,STARLINK-4200,PAYLOAD,2023-11-06 06:17:47,15.08933996,0.0001544,53.2166,249.7936,101.8395,258.2771,0.0034906,0.00055849,0.0,0 STARLINK-4200,1 52876U 22062AY  23310.26235829  .00055849  00000-0  34906-2 0  9991,2 52876  53.2166 249.7936 0001544 101.8395 258.2771 15.08933996 77564,6917.593,95.432,540.526,538.39,0.0
52876.0,STARLINK-4200,PAYLOAD,2023-11-06 12:39:20,15.08862814,0.0002692,53.2176,248.6028,80.2158,279.9138,-0.00031611,-5.319e-05,0.0,0 STARLINK-4200,1 52876U 22062AY  23310.52732567 -.00005319  00000-0 -31611-3 0  9991,2 52876  53.2176 248.6028 0002692  80.2158 279.9138 15.08862814 77115,6917.811,95.436,541.538,537.813,0.0
52876.0,STARLINK-4200,PAYLOAD,2023-11-07 02:57:52,15.08736462,0.0001696,53.2174,245.9343,109.4344,250.6832,0.00016545,2.339e-05,0.0,0 STARLINK-4200,1 52876U 22062AY  23311.12352776  .00002339  00000-0  16545-3 0  9994,2 52876  53.2174 245.9343 0001696 109.4344 250.6832 15.08736462 77696,6918.197,95.444,541.235,538.889,0.0
